ONEWEB-0350             
1 49214U 21083AE  25037.96549134  .00000417  00000+0  11056-2 0  9998
2 49214  87.8880  58.6783 0002024  81.9111 278.2247 13.13471272165923
ONEWEB-0354             
1 49217U 21083AH  25038.66850072  .00000034  00000+0  52581-4 0  9990
2 49217  87.9279  12.8202 0002007  74.5344 285.6010 13.20771305172841
ONEWEB-0357             
1 49219U 21083AK  25038.66533477  .00000050  00000+0  91615-4 0  9998
2 49219  87.9277  12.8315 0002074  85.3494 274.7876 13.20770063172834
ONEWEB-0332             
1 49279U 21090A   25037.92020564 -.00000108  00000+0 -32565-3 0  9992
2 49279  87.9003  28.1917 0001847  96.8748 263.2592 13.14503904162514
ONEWEB-0347             
1 49280U 21090B   25038.42859203  .00000088  00000+0  18353-3 0  9994
2 49280  87.9280  12.8832 0001698  97.1003 263.0323 13.20770261165737
